{
    "CCSDS_OMM_VERS": "3.0",
    "COMMENT": "GENERATED VIA SPACE-TRACK.ORG API",
    "CREATION_DATE": "2025-05-22T17:14:14",
    "ORIGINATOR": "18 SPCS",
    "OBJECT_NAME": "BD-18",
    "OBJECT_ID": "2015-037A",
    "CENTER_NAME": "EARTH",
    "REF_FRAME": "TEME",
    "TIME_SYSTEM": "UTC",
    "MEAN_ELEMENT_THEORY": "SGP4",
    "EPOCH": "2025-05-21T21:11:42.442368",
    "MEAN_MOTION": "1.86229107",
    "ECCENTRICITY": "0.00080560",
    "INCLINATION": "55.2141",
    "RA_OF_ASC_NODE": "315.4839",
    "ARG_OF_PERICENTER": "257.3232",
    "MEAN_ANOMALY": "102.5852",
    "EPHEMERIS_TYPE": "0",
    "CLASSIFICATION_TYPE": "U",
    "NORAD_CAT_ID": "40748",
    "ELEMENT_SET_NO": "999",
    "REV_AT_EPOCH": "6683",
    "BSTAR": "0.00000000000000",
    "MEAN_MOTION_DOT": "-0.00000049",
    "MEAN_MOTION_DDOT": "0.0000000000000",
    "SEMIMAJOR_AXIS": "27906.378",
    "PERIOD": "773.241",
    "APOAPSIS": "21550.724",
    "PERIAPSIS": "21505.761",
    "OBJECT_TYPE": "PAYLOAD",
    "RCS_SIZE": "LARGE",
    "COUNTRY_CODE": "PRC",
    "LAUNCH_DATE": "2015-07-25",
    "SITE": "XSC",
    "DECAY_DATE": null,
    "FILE": "4736220",
    "GP_ID": "288143168",
    "TLE_LINE0": "0 BD-18",
    "TLE_LINE1": "1 40748U 15037A   25141.88313012 -.00000049  00000-0  00000-0 0  9992",
    "TLE_LINE2": "2 40748  55.2141 315.4839 0008056 257.3232 102.5852  1.86229107 66831"
}